ORBCOMM FM103           
1 40091U 14040F   26001.45742287  .00001386  00000+0  33125-3 0  9995
2 40091  47.0037 161.1877 0001292 129.4000 230.7001 14.58570791593049
ORBCOMM FM114           
1 41179U 15081A   26001.61090669  .00001551  00000+0  36632-3 0  9997
2 41179  47.0054  69.4155 0002237 182.6929 177.3945 14.58596189533435
ORBCOMM FM119           
1 41180U 15081B   26001.33365068  .00001578  00000+0  37249-3 0  9990
2 41180  47.0018 340.0849 0001771 259.9333 100.1353 14.58544453534642
ORBCOMM FM105           
1 41181U 15081C   26001.41652012  .00000645  00000+0  22610-3 0  9998
2 41181  47.0027   4.0227 0001050 159.8485 200.2437 14.45425069529428
ORBCOMM FM110           
1 41182U 15081D   26001.39498059  .00002129  00000+0  48877-3 0  9997
2 41182  47.0025  69.9287 0002079 359.8870   0.2015 14.58633434533274
ORBCOMM FM118           
1 41183U 15081E   26001.56656029  .00001909  00000+0  44209-3 0  9990
2 41183  47.0046  69.4202 0003064 323.8526  36.2153 14.58621983533407
ORBCOMM FM112           
1 41184U 15081F   26001.36370104  .00001708  00000+0  39935-3 0  9993
2 41184  47.0002 338.9067 0001316 199.8903 160.1932 14.58623602534594
ORBCOMM FM113           
1 41185U 15081G   25365.99851617  .00001502  00000+0  35572-3 0  9993
2 41185  47.0020 340.9918 0001285 216.6509 143.4289 14.58617377534522
